{"fetched_at":"2026-07-12T05:53:00.955Z","source":"https://celestrak.org/NORAD/elements/gp.php?NAME=JILIN&FORMAT=JSON","constellation":"jilin-1-kuanfu","records":[{"OBJECT_NAME":"JILIN-1 KUANFU 01","OBJECT_ID":"2020-003A","EPOCH":"2026-07-11T18:59:47.924160","CLASSIFICATION_TYPE":"U","MEAN_MOTION":15.10855743,"ECCENTRICITY":0.0008963,"INCLINATION":97.5021,"RA_OF_ASC_NODE":266.2674,"ARG_OF_PERICENTER":209.51,"MEAN_ANOMALY":150.5625,"EPHEMERIS_TYPE":0,"NORAD_CAT_ID":45016,"ELEMENT_SET_NO":999,"REV_AT_EPOCH":35904,"BSTAR":0.000098524,"MEAN_MOTION_DOT":0.00001576,"MEAN_MOTION_DDOT":0},{"OBJECT_NAME":"JILIN-1 KUANFU-01B","OBJECT_ID":"2021-061A","EPOCH":"2026-07-11T19:52:08.901984","CLASSIFICATION_TYPE":"U","MEAN_MOTION":15.09796147,"ECCENTRICITY":0.0006369,"INCLINATION":97.52,"RA_OF_ASC_NODE":268.5639,"ARG_OF_PERICENTER":349.0446,"MEAN_ANOMALY":11.0644,"EPHEMERIS_TYPE":0,"NORAD_CAT_ID":49003,"ELEMENT_SET_NO":999,"REV_AT_EPOCH":27706,"BSTAR":0.00011249,"MEAN_MOTION_DOT":0.00001755,"MEAN_MOTION_DDOT":0},{"OBJECT_NAME":"JILIN-1 KUANFU 01C","OBJECT_ID":"2022-048A","EPOCH":"2026-07-11T19:39:46.638720","CLASSIFICATION_TYPE":"U","MEAN_MOTION":15.09589336,"ECCENTRICITY":0.0017072,"INCLINATION":97.5251,"RA_OF_ASC_NODE":269.5444,"ARG_OF_PERICENTER":232.4321,"MEAN_ANOMALY":127.5358,"EPHEMERIS_TYPE":0,"NORAD_CAT_ID":52443,"ELEMENT_SET_NO":999,"REV_AT_EPOCH":23091,"BSTAR":0.00011776,"MEAN_MOTION_DOT":0.00001834,"MEAN_MOTION_DDOT":0},{"OBJECT_NAME":"JILIN-1 KUANFU 02A","OBJECT_ID":"2023-127A","EPOCH":"2026-07-11T20:11:27.647808","CLASSIFICATION_TYPE":"U","MEAN_MOTION":15.10796325,"ECCENTRICITY":0.0010051,"INCLINATION":97.557,"RA_OF_ASC_NODE":286.3481,"ARG_OF_PERICENTER":249.6657,"MEAN_ANOMALY":110.3493,"EPHEMERIS_TYPE":0,"NORAD_CAT_ID":57696,"ELEMENT_SET_NO":999,"REV_AT_EPOCH":15935,"BSTAR":0.00012752,"MEAN_MOTION_DOT":0.00002055,"MEAN_MOTION_DDOT":0},{"OBJECT_NAME":"JILIN-01 KUANFU 02B 1","OBJECT_ID":"2024-169A","EPOCH":"2026-07-11T20:25:38.793216","CLASSIFICATION_TYPE":"U","MEAN_MOTION":15.09045634,"ECCENTRICITY":0.0001786,"INCLINATION":97.558,"RA_OF_ASC_NODE":281.9941,"ARG_OF_PERICENTER":357.8943,"MEAN_ANOMALY":2.2278,"EPHEMERIS_TYPE":0,"NORAD_CAT_ID":61189,"ELEMENT_SET_NO":999,"REV_AT_EPOCH":9954,"BSTAR":0.00014958,"MEAN_MOTION_DOT":0.00002304,"MEAN_MOTION_DDOT":0},{"OBJECT_NAME":"JILIN-01 KUANFU 02B 2","OBJECT_ID":"2024-169B","EPOCH":"2026-07-11T19:56:10.257792","CLASSIFICATION_TYPE":"U","MEAN_MOTION":15.0900664,"ECCENTRICITY":0.00048,"INCLINATION":97.5571,"RA_OF_ASC_NODE":281.3593,"ARG_OF_PERICENTER":294.7984,"MEAN_ANOMALY":65.2745,"EPHEMERIS_TYPE":0,"NORAD_CAT_ID":61190,"ELEMENT_SET_NO":999,"REV_AT_EPOCH":9954,"BSTAR":0.00010879,"MEAN_MOTION_DOT":0.00001657,"MEAN_MOTION_DDOT":0},{"OBJECT_NAME":"JILIN-01 KUANFU 02B 3","OBJECT_ID":"2024-169C","EPOCH":"2026-07-11T20:09:10.247616","CLASSIFICATION_TYPE":"U","MEAN_MOTION":15.09045787,"ECCENTRICITY":0.0012743,"INCLINATION":97.5569,"RA_OF_ASC_NODE":281.801,"ARG_OF_PERICENTER":217.4921,"MEAN_ANOMALY":142.542,"EPHEMERIS_TYPE":0,"NORAD_CAT_ID":61191,"ELEMENT_SET_NO":999,"REV_AT_EPOCH":9954,"BSTAR":0.00012325,"MEAN_MOTION_DOT":0.0000189,"MEAN_MOTION_DDOT":0},{"OBJECT_NAME":"JILIN-01 KUANFU 02B 4","OBJECT_ID":"2024-169D","EPOCH":"2026-07-11T19:24:09.430272","CLASSIFICATION_TYPE":"U","MEAN_MOTION":15.09026256,"ECCENTRICITY":0.0013707,"INCLINATION":97.5529,"RA_OF_ASC_NODE":281.2981,"ARG_OF_PERICENTER":175.1328,"MEAN_ANOMALY":185.0037,"EPHEMERIS_TYPE":0,"NORAD_CAT_ID":61192,"ELEMENT_SET_NO":999,"REV_AT_EPOCH":9954,"BSTAR":0.00014758,"MEAN_MOTION_DOT":0.00002276,"MEAN_MOTION_DDOT":0},{"OBJECT_NAME":"JILIN-01 KUANFU 02B 5","OBJECT_ID":"2024-169E","EPOCH":"2026-07-11T20:41:04.729056","CLASSIFICATION_TYPE":"U","MEAN_MOTION":15.0906198,"ECCENTRICITY":0.0012921,"INCLINATION":97.5579,"RA_OF_ASC_NODE":282.1453,"ARG_OF_PERICENTER":199.112,"MEAN_ANOMALY":160.9625,"EPHEMERIS_TYPE":0,"NORAD_CAT_ID":61193,"ELEMENT_SET_NO":999,"REV_AT_EPOCH":9955,"BSTAR":0.000172,"MEAN_MOTION_DOT":0.00002665,"MEAN_MOTION_DDOT":0},{"OBJECT_NAME":"JILIN-01 KUANFU 02B 6","OBJECT_ID":"2024-169F","EPOCH":"2026-07-11T19:39:29.185056","CLASSIFICATION_TYPE":"U","MEAN_MOTION":15.09019863,"ECCENTRICITY":0.0015378,"INCLINATION":97.5557,"RA_OF_ASC_NODE":281.9968,"ARG_OF_PERICENTER":233.5947,"MEAN_ANOMALY":126.3864,"EPHEMERIS_TYPE":0,"NORAD_CAT_ID":61194,"ELEMENT_SET_NO":999,"REV_AT_EPOCH":9955,"BSTAR":0.00010698,"MEAN_MOTION_DOT":0.00001632,"MEAN_MOTION_DDOT":0}]}
